ORBCOMM FM103           
1 40091U 14040F   25299.80302292  .00001012  00000+0  25257-3 0  9993
2 40091  47.0038 116.1347 0001790 180.3101 179.7784 14.58408186583310
ORBCOMM FM114           
1 41179U 15081A   25299.95797625  .00001044  00000+0  25917-3 0  9999
2 41179  47.0043  24.3807 0002878 240.0195 120.0405 14.58448767523705
ORBCOMM FM119           
1 41180U 15081B   25300.15743931  .00001062  00000+0  26342-3 0  9990
2 41180  47.0006 292.7874 0002011 288.0833  71.9833 14.58385974524981
ORBCOMM FM105           
1 41181U 15081C   25300.05552356  .00000401  00000+0  15749-3 0  9994
2 41181  47.0021 311.0734 0002104 219.0057 141.0672 14.45343372519823
ORBCOMM FM110           
1 41182U 15081D   25299.94942091  .00001412  00000+0  33754-3 0  9998
2 41182  47.0034  23.9459 0001412  92.7803 267.3244 14.58487640523572
ORBCOMM FM118           
1 41183U 15081E   25299.64006439  .00001217  00000+0  29626-3 0  9999
2 41183  47.0055  25.6813 0002062  21.8303 338.2670 14.58443331523636
ORBCOMM FM112           
1 41184U 15081F   25300.12406660  .00001271  00000+0  30728-3 0  9991
2 41184  46.9992 291.9732 0002154 251.8047 108.2604 14.58510151524925
ORBCOMM FM113           
1 41185U 15081G   25300.03264241  .00001030  00000+0  25593-3 0  9996
2 41185  47.0009 292.7521 0002047 264.0335  96.0317 14.58504226524896
